[{"OBJECT_NAME":"STARLINK-30859","OBJECT_ID":"2023-177W","EPOCH":"2025-07-30T11:14:19.334976","MEAN_MOTION":15.02536202,"ECCENTRICITY":0.000108,"INCLINATION":43.0028,"RA_OF_ASC_NODE":119.4111,"ARG_OF_PERICENTER":271.903,"MEAN_ANOMALY":88.1689,"EPHEMERIS_TYPE":0,"CLASSIFICATION_TYPE":"U","NORAD_CAT_ID":58371,"ELEMENT_SET_NO":999,"REV_AT_EPOCH":9479,"BSTAR":2.9164e-5,"MEAN_MOTION_DOT":1.9e-6,"MEAN_MOTION_DDOT":0},{"OBJECT_NAME":"STARLINK-30884","OBJECT_ID":"2023-177X","EPOCH":"2025-07-30T10:26:22.648704","MEAN_MOTION":15.02537846,"ECCENTRICITY":9.32e-5,"INCLINATION":43.0038,"RA_OF_ASC_NODE":119.1915,"ARG_OF_PERICENTER":264.416,"MEAN_ANOMALY":95.6576,"EPHEMERIS_TYPE":0,"CLASSIFICATION_TYPE":"U","NORAD_CAT_ID":58372,"ELEMENT_SET_NO":999,"REV_AT_EPOCH":9478,"BSTAR":7.3288e-5,"MEAN_MOTION_DOT":7.87e-6,"MEAN_MOTION_DDOT":0},{"OBJECT_NAME":"STARLINK-30852","OBJECT_ID":"2023-177Y","EPOCH":"2025-07-30T11:06:19.931616","MEAN_MOTION":15.02536299,"ECCENTRICITY":7.8e-5,"INCLINATION":43.0014,"RA_OF_ASC_NODE":119.367,"ARG_OF_PERICENTER":260.3169,"MEAN_ANOMALY":99.7585,"EPHEMERIS_TYPE":0,"CLASSIFICATION_TYPE":"U","NORAD_CAT_ID":58373,"ELEMENT_SET_NO":999,"REV_AT_EPOCH":9478,"BSTAR":3.2873e-5,"MEAN_MOTION_DOT":2.41e-6,"MEAN_MOTION_DDOT":0},{"OBJECT_NAME":"STARLINK-30911","OBJECT_ID":"2023-178A","EPOCH":"2025-07-30T13:16:54.750144","MEAN_MOTION":15.30184604,"ECCENTRICITY":0.0001227,"INCLINATION":53.1608,"RA_OF_ASC_NODE":312.7091,"ARG_OF_PERICENTER":93.2167,"MEAN_ANOMALY":266.8974,"EPHEMERIS_TYPE":0,"CLASSIFICATION_TYPE":"U","NORAD_CAT_ID":58374,"ELEMENT_SET_NO":999,"REV_AT_EPOCH":9587,"BSTAR":4.6694e-5,"MEAN_MOTION_DOT":1.023e-5,"MEAN_MOTION_DDOT":0},{"OBJECT_NAME":"STARLINK-30894","OBJECT_ID":"2023-178B","EPOCH":"2025-07-30T13:32:06.413568","MEAN_MOTION":15.30188188,"ECCENTRICITY":0.0001131,"INCLINATION":53.161,"RA_OF_ASC_NODE":312.782,"ARG_OF_PERICENTER":74.2418,"MEAN_ANOMALY":285.8707,"EPHEMERIS_TYPE":0,"CLASSIFICATION_TYPE":"U","NORAD_CAT_ID":58375,"ELEMENT_SET_NO":999,"REV_AT_EPOCH":9581,"BSTAR":2.8883e-5,"MEAN_MOTION_DOT":4.96e-6,"MEAN_MOTION_DDOT":0},{"OBJECT_NAME":"STARLINK-30910","OBJECT_ID":"2023-178C","EPOCH":"2025-07-30T13:36:39.929184","MEAN_MOTION":15.30186968,"ECCENTRICITY":0.0001148,"INCLINATION":53.161,"RA_OF_ASC_NODE":312.7991,"ARG_OF_PERICENTER":84.0925,"MEAN_ANOMALY":276.0207,"EPHEMERIS_TYPE":0,"CLASSIFICATION_TYPE":"U","NORAD_CAT_ID":58376,"ELEMENT_SET_NO":999,"REV_AT_EPOCH":9588,"BSTAR":4.1354e-5,"MEAN_MOTION_DOT":8.65e-6,"MEAN_MOTION_DDOT":0},{"OBJECT_NAME":"STARLINK-30914","OBJECT_ID":"2023-178D","EPOCH":"2025-07-30T13:19:57.185472","MEAN_MOTION":15.3018137,"ECCENTRICITY":0.0001178,"INCLINATION":53.1607,"RA_OF_ASC_NODE":312.7114,"ARG_OF_PERICENTER":83.114,"MEAN_ANOMALY":276.9995,"EPHEMERIS_TYPE":0,"CLASSIFICATION_TYPE":"U","NORAD_CAT_ID":58377,"ELEMENT_SET_NO":999,"REV_AT_EPOCH":9588,"BSTAR":-1.3848e-5,"MEAN_MOTION_DOT":-7.69e-6,"MEAN_MOTION_DDOT":0},{"OBJECT_NAME":"STARLINK-30920","OBJECT_ID":"2023-178E","EPOCH":"2025-07-30T12:29:10.209984","MEAN_MOTION":15.30189854,"ECCENTRICITY":0.0001258,"INCLINATION":53.1608,"RA_OF_ASC_NODE":300.4665,"ARG_OF_PERICENTER":81.8743,"MEAN_ANOMALY":278.24,"EPHEMERIS_TYPE":0,"CLASSIFICATION_TYPE":"U","NORAD_CAT_ID":58378,"ELEMENT_SET_NO":999,"REV_AT_EPOCH":9605,"BSTAR":4.5633e-5,"MEAN_MOTION_DOT":9.92e-6,"MEAN_MOTION_DDOT":0},{"OBJECT_NAME":"STARLINK-30882","OBJECT_ID":"2023-178F","EPOCH":"2025-07-30T13:41:13.608096","MEAN_MOTION":15.30189143,"ECCENTRICITY":0.0001122,"INCLINATION":53.1611,"RA_OF_ASC_NODE":312.8181,"ARG_OF_PERICENTER":81.4596,"MEAN_ANOMALY":278.6532,"EPHEMERIS_TYPE":0,"CLASSIFICATION_TYPE":"U","NORAD_CAT_ID":58379,"ELEMENT_SET_NO":999,"REV_AT_EPOCH":9588,"BSTAR":-2.3219e-5,"MEAN_MOTION_DOT":-1.046e-5,"MEAN_MOTION_DDOT":0},{"OBJECT_NAME":"STARLINK-30915","OBJECT_ID":"2023-178G","EPOCH":"2025-07-30T06:36:54.187488","MEAN_MOTION":15.30189965,"ECCENTRICITY":0.0001062,"INCLINATION":53.1576,"RA_OF_ASC_NODE":224.4303,"ARG_OF_PERICENTER":94.8523,"MEAN_ANOMALY":265.2598,"EPHEMERIS_TYPE":0,"CLASSIFICATION_TYPE":"U","NORAD_CAT_ID":58380,"ELEMENT_SET_NO":999,"REV_AT_EPOCH":9706,"BSTAR":2.7283e-5,"MEAN_MOTION_DOT":4.49e-6,"MEAN_MOTION_DDOT":0},{"OBJECT_NAME":"STARLINK-30923","OBJECT_ID":"2023-178H","EPOCH":"2025-07-30T13:54:53.020512","MEAN_MOTION":15.30194427,"ECCENTRICITY":0.0001055,"INCLINATION":53.1596,"RA_OF_ASC_NODE":312.8321,"ARG_OF_PERICENTER":84.0183,"MEAN_ANOMALY":276.0938,"EPHEMERIS_TYPE":0,"CLASSIFICATION_TYPE":"U","NORAD_CAT_ID":58381,"ELEMENT_SET_NO":999,"REV_AT_EPOCH":9578,"BSTAR":3.6962e-5,"MEAN_MOTION_DOT":7.36e-6,"MEAN_MOTION_DDOT":0},{"OBJECT_NAME":"STARLINK-30927","OBJECT_ID":"2023-178J","EPOCH":"2025-07-30T14:14:39.055776","MEAN_MOTION":15.30190676,"ECCENTRICITY":0.0001184,"INCLINATION":53.1597,"RA_OF_ASC_NODE":312.9609,"ARG_OF_PERICENTER":127.3804,"MEAN_ANOMALY":232.7304,"EPHEMERIS_TYPE":0,"CLASSIFICATION_TYPE":"U","NORAD_CAT_ID":58382,"ELEMENT_SET_NO":999,"REV_AT_EPOCH":9585,"BSTAR":-1.4118e-6,"MEAN_MOTION_DOT":-4.01e-6,"MEAN_MOTION_DDOT":0},{"OBJECT_NAME":"STARLINK-30921","OBJECT_ID":"2023-178K","EPOCH":"2025-07-30T13:50:20.984064","MEAN_MOTION":15.30173424,"ECCENTRICITY":8.04e-5,"INCLINATION":53.1598,"RA_OF_ASC_NODE":312.8584,"ARG_OF_PERICENTER":98.8552,"MEAN_ANOMALY":261.254,"EPHEMERIS_TYPE":0,"CLASSIFICATION_TYPE":"U","NORAD_CAT_ID":58383,"ELEMENT_SET_NO":999,"REV_AT_EPOCH":9586,"BSTAR":-9.3031e-5,"MEAN_MOTION_DOT":-3.111e-5,"MEAN_MOTION_DDOT":0},{"OBJECT_NAME":"STARLINK-30825","OBJECT_ID":"2023-178L","EPOCH":"2025-07-30T13:27:32.231808","MEAN_MOTION":15.30191733,"ECCENTRICITY":0.0001068,"INCLINATION":53.1599,"RA_OF_ASC_NODE":312.7304,"ARG_OF_PERICENTER":80.2826,"MEAN_ANOMALY":279.8295,"EPHEMERIS_TYPE":0,"CLASSIFICATION_TYPE":"U","NORAD_CAT_ID":58384,"ELEMENT_SET_NO":999,"REV_AT_EPOCH":9587,"BSTAR":3.6196e-5,"MEAN_MOTION_DOT":7.13e-6,"MEAN_MOTION_DDOT":0},{"OBJECT_NAME":"STARLINK-30930","OBJECT_ID":"2023-178M","EPOCH":"2025-07-30T13:12:19.990368","MEAN_MOTION":15.30199486,"ECCENTRICITY":0.000163,"INCLINATION":53.161,"RA_OF_ASC_NODE":312.6875,"ARG_OF_PERICENTER":94.7173,"MEAN_ANOMALY":265.4014,"EPHEMERIS_TYPE":0,"CLASSIFICATION_TYPE":"U","NORAD_CAT_ID":58385,"ELEMENT_SET_NO":999,"REV_AT_EPOCH":9575,"BSTAR":8.7831e-5,"MEAN_MOTION_DOT":2.243e-5,"MEAN_MOTION_DDOT":0},{"OBJECT_NAME":"STARLINK-30929","OBJECT_ID":"2023-178N","EPOCH":"2025-07-30T13:07:54.599808","MEAN_MOTION":15.30188094,"ECCENTRICITY":0.0001064,"INCLINATION":53.1621,"RA_OF_ASC_NODE":313.1777,"ARG_OF_PERICENTER":84.6948,"MEAN_ANOMALY":275.4175,"EPHEMERIS_TYPE":0,"CLASSIFICATION_TYPE":"U","NORAD_CAT_ID":58386,"ELEMENT_SET_NO":999,"REV_AT_EPOCH":9585,"BSTAR":3.4398e-5,"MEAN_MOTION_DOT":6.6e-6,"MEAN_MOTION_DDOT":0},{"OBJECT_NAME":"STARLINK-30898","OBJECT_ID":"2023-178P","EPOCH":"2025-07-30T14:28:18.339456","MEAN_MOTION":15.30184693,"ECCENTRICITY":0.0001273,"INCLINATION":53.1618,"RA_OF_ASC_NODE":312.8914,"ARG_OF_PERICENTER":106.3873,"MEAN_ANOMALY":253.7268,"EPHEMERIS_TYPE":0,"CLASSIFICATION_TYPE":"U","NORAD_CAT_ID":58387,"ELEMENT_SET_NO":999,"REV_AT_EPOCH":9588,"BSTAR":-2.0548e-5,"MEAN_MOTION_DOT":-9.67e-6,"MEAN_MOTION_DDOT":0},{"OBJECT_NAME":"STARLINK-30913","OBJECT_ID":"2023-178Q","EPOCH":"2025-07-30T14:08:34.535904","MEAN_MOTION":15.30189876,"ECCENTRICITY":9.53e-5,"INCLINATION":53.1597,"RA_OF_ASC_NODE":312.9351,"ARG_OF_PERICENTER":104.3764,"MEAN_ANOMALY":255.7343,"EPHEMERIS_TYPE":0,"CLASSIFICATION_TYPE":"U","NORAD_CAT_ID":58388,"ELEMENT_SET_NO":999,"REV_AT_EPOCH":9588,"BSTAR":-6.2873e-7,"MEAN_MOTION_DOT":-3.78e-6,"MEAN_MOTION_DDOT":0},{"OBJECT_NAME":"STARLINK-30938","OBJECT_ID":"2023-178R","EPOCH":"2025-07-30T14:11:37.098240","MEAN_MOTION":15.30190403,"ECCENTRICITY":0.0001086,"INCLINATION":53.1603,"RA_OF_ASC_NODE":312.9476,"ARG_OF_PERICENTER":102.8347,"MEAN_ANOMALY":257.2776,"EPHEMERIS_TYPE":0,"CLASSIFICATION_TYPE":"U","NORAD_CAT_ID":58389,"ELEMENT_SET_NO":999,"REV_AT_EPOCH":9588,"BSTAR":1.0721e-5,"MEAN_MOTION_DOT":-4.2e-7,"MEAN_MOTION_DDOT":0},{"OBJECT_NAME":"STARLINK-30868","OBJECT_ID":"2023-178S","EPOCH":"2025-07-30T12:25:25.178592","MEAN_MOTION":15.30178979,"ECCENTRICITY":0.0001128,"INCLINATION":53.1598,"RA_OF_ASC_NODE":313.1994,"ARG_OF_PERICENTER":91.5828,"MEAN_ANOMALY":268.5302,"EPHEMERIS_TYPE":0,"CLASSIFICATION_TYPE":"U","NORAD_CAT_ID":58390,"ELEMENT_SET_NO":999,"REV_AT_EPOCH":9587,"BSTAR":-5.9245e-5,"MEAN_MOTION_DOT":-2.112e-5,"MEAN_MOTION_DDOT":0},{"OBJECT_NAME":"STARLINK-30916","OBJECT_ID":"2023-178T","EPOCH":"2025-07-30T14:19:09.527520","MEAN_MOTION":15.30213028,"ECCENTRICITY":0.000116,"INCLINATION":53.1606,"RA_OF_ASC_NODE":312.8791,"ARG_OF_PERICENTER":92.9049,"MEAN_ANOMALY":267.2085,"EPHEMERIS_TYPE":0,"CLASSIFICATION_TYPE":"U","NORAD_CAT_ID":58391,"ELEMENT_SET_NO":999,"REV_AT_EPOCH":9588,"BSTAR":7.2082e-5,"MEAN_MOTION_DOT":1.777e-5,"MEAN_MOTION_DDOT":0},{"OBJECT_NAME":"STARLINK-30937","OBJECT_ID":"2023-178U","EPOCH":"2025-07-30T22:00:01.999584","MEAN_MOTION":15.41695993,"ECCENTRICITY":0.0009834,"INCLINATION":53.1554,"RA_OF_ASC_NODE":309.2317,"ARG_OF_PERICENTER":337.2258,"MEAN_ANOMALY":6.0443,"EPHEMERIS_TYPE":0,"CLASSIFICATION_TYPE":"U","NORAD_CAT_ID":58392,"ELEMENT_SET_NO":999,"REV_AT_EPOCH":9595,"BSTAR":0.0027374,"MEAN_MOTION_DOT":0.00118883,"MEAN_MOTION_DDOT":0},{"OBJECT_NAME":"STARLINK-30939","OBJECT_ID":"2023-178V","EPOCH":"2025-07-30T13:45:46.623456","MEAN_MOTION":15.30195527,"ECCENTRICITY":0.0001107,"INCLINATION":53.1606,"RA_OF_ASC_NODE":312.8375,"ARG_OF_PERICENTER":91.131,"MEAN_ANOMALY":268.9817,"EPHEMERIS_TYPE":0,"CLASSIFICATION_TYPE":"U","NORAD_CAT_ID":58393,"ELEMENT_SET_NO":999,"REV_AT_EPOCH":9575,"BSTAR":3.9592e-5,"MEAN_MOTION_DOT":8.14e-6,"MEAN_MOTION_DDOT":0}]
